[{"OBJECT_NAME":"TIANMU-1 10","OBJECT_ID":"2023-101D","EPOCH":"2026-03-09T23:06:46.939392","MEAN_MOTION":15.2921896,"ECCENTRICITY":0.00069292,"INCLINATION":97.2749,"RA_OF_ASC_NODE":122.1027,"ARG_OF_PERICENTER":133.6162,"MEAN_ANOMALY":226.5654,"EPHEMERIS_TYPE":0,"CLASSIFICATION_TYPE":"U","NORAD_CAT_ID":57402,"ELEMENT_SET_NO":999,"REV_AT_EPOCH":14647,"BSTAR":0.00032238884,"MEAN_MOTION_DOT":9.075e-5,"MEAN_MOTION_DDOT":0},{"OBJECT_NAME":"STARLINK-33803","OBJECT_ID":"2025-071AA","EPOCH":"2026-03-09T12:13:11.554464","MEAN_MOTION":15.30186695,"ECCENTRICITY":0.00012328,"INCLINATION":53.1591,"RA_OF_ASC_NODE":140.6174,"ARG_OF_PERICENTER":89.2697,"MEAN_ANOMALY":270.8445,"EPHEMERIS_TYPE":0,"CLASSIFICATION_TYPE":"U","NORAD_CAT_ID":63517,"ELEMENT_SET_NO":999,"REV_AT_EPOCH":5274,"BSTAR":0.00068079167,"MEAN_MOTION_DOT":0.0001985,"MEAN_MOTION_DDOT":0}]
